[{"OBJECT_NAME":"METOP-SGA1","OBJECT_ID":"2025-172A","EPOCH":"2026-03-09T18:22:16.359168","MEAN_MOTION":14.21429454,"ECCENTRICITY":0.0001154,"INCLINATION":98.6757,"RA_OF_ASC_NODE":130.2282,"ARG_OF_PERICENTER":80.674,"MEAN_ANOMALY":279.4568,"EPHEMERIS_TYPE":0,"CLASSIFICATION_TYPE":"U","NORAD_CAT_ID":65159,"ELEMENT_SET_NO":999,"REV_AT_EPOCH":2966,"BSTAR":3.7676115e-5,"MEAN_MOTION_DOT":3.9e-7,"MEAN_MOTION_DDOT":0},{"OBJECT_NAME":"METEOR 2-8 DEB","OBJECT_ID":"1982-025K","EPOCH":"2026-03-09T09:34:24.850272","MEAN_MOTION":14.19587421,"ECCENTRICITY":0.00152783,"INCLINATION":82.5233,"RA_OF_ASC_NODE":312.8316,"ARG_OF_PERICENTER":244.2465,"MEAN_ANOMALY":115.7138,"EPHEMERIS_TYPE":0,"CLASSIFICATION_TYPE":"U","NORAD_CAT_ID":36325,"ELEMENT_SET_NO":999,"REV_AT_EPOCH":63804,"BSTAR":0.0010331459,"MEAN_MOTION_DOT":2.197e-5,"MEAN_MOTION_DDOT":0}]
